ONEWEB-0580             
1 54648U 22166G   24189.58536045  .00000046  00000+0  79600-4 0  9999
2 54648  87.9279  25.2332 0002184 100.7398 259.3982 13.21825187 77809
ONEWEB-0582             
1 54649U 22166H   24189.24945440  .00000008  00000+0 -13019-4 0  9997
2 54649  87.9275  25.3368 0002192 105.6565 254.4811 13.21824877 77739
ONEWEB-0583             
1 54650U 22166J   24189.26050002  .00000042  00000+0  69989-4 0  9996
2 54650  87.9274  25.3345 0001947  87.5505 272.5852 13.21825516 77742
ONEWEB-0584             
1 54651U 22166K   24189.58378427  .00000031  00000+0  43818-4 0  9997
2 54651  87.9279  25.2369 0002092  95.5642 264.5731 13.21824930 77775
ONEWEB-0585             
1 54652U 22166L   24189.83610070  .00000057  00000+0  10733-3 0  9996
2 54652  87.9281  25.1958 0001796  85.1763 274.9576 13.21825815 78283
ONEWEB-0586             
1 54653U 22166M   24189.24314106  .00000059  00000+0  11030-3 0  9996
2 54653  87.9273  25.3276 0002027  91.8741 268.2625 13.21827795 77737
ONEWEB-0587             
1 54654U 22166N   24189.25261057  .00000076  00000+0  15361-3 0  9994
2 54654  87.9272  25.2805 0001719  78.7800 281.3527 13.21826405 77892
ONEWEB-0589             
1 54655U 22166P   24189.61848489  .00000012  00000+0 -19141-5 0  9998
2 54655  87.9275  25.2393 0002426 109.0594 251.0803 13.21825392 78270
ONEWEB-0590             
1 54656U 22166Q   24189.94492840  .00000045  00000+0  77918-4 0  9991
2 54656  87.9280  25.1819 0001697  87.6550 272.4778 13.21826269 78295
ONEWEB-0591             
1 54657U 22166R   24189.57902474 -.00000088  00000+0 -24474-3 0  9997
2 54657  87.9274  25.2499 0001885  92.1864 267.9486 13.21827585 77816
ONEWEB-0592             
1 54658U 22166S   24190.03638397  .00000068  00000+0  13414-3 0  9999
2 54658  87.9272  25.1238 0001888  96.2932 263.8417 13.21825057 78226
ONEWEB-0593             
1 54659U 22166T   24189.60585868 -.00000013  00000+0 -62814-4 0  9996
2 54659  87.9277  25.2356 0001932  95.1847 264.9508 13.21825266 78277
ONEWEB-0594             
1 54660U 22166U   24189.62477993 -.00000022  00000+0 -84273-4 0  9992
2 54660  87.9278  25.2324 0001935  84.5497 275.5858 13.21824174 78285
ONEWEB-0595             
1 54661U 22166V   24189.60270321 -.00000007  00000+0 -49168-4 0  9994
2 54661  87.9277  25.2237 0001644  81.8830 278.2491 13.21827022 77799
ONEWEB-0596             
1 54662U 22166W   24189.50020371  .00000085  00000+0  17341-3 0  9993
2 54662  87.9279  25.2498 0001834  98.4025 261.7317 13.21825034 78259
ONEWEB-0597             
1 54663U 22166X   24189.55697032  .00000055  00000+0  10185-3 0  9999
2 54663  87.9277  25.2403 0002122  94.8160 265.3216 13.21825037 77794
ONEWEB-0600             
1 54664U 22166Y   24189.61532009  .00000027  00000+0  34244-4 0  9991
2 54664  87.9274  25.2680 0002016  90.7969 269.3396 13.21825281 78248
ONEWEB-0601             
1 54665U 22166Z   24189.60742394 -.00000023  00000+0 -87877-4 0  9999
2 54665  87.9282  25.2354 0002014 102.6857 257.4502 13.21823935 78424
ONEWEB-0602             
1 54666U 22166AA  24189.49703736  .00000092  00000+0  19090-3 0  9999
2 54666  87.9280  25.2609 0002095  96.3219 263.8154 13.21828413 77795
ONEWEB-0603             
1 54667U 22166AB  24189.57746426  .00000094  00000+0  19554-3 0  9999
2 54667  87.9282  25.2467 0002124  97.4808 262.6567 13.21828189 77738
ONEWEB-0604             
1 54668U 22166AC  24189.48916913  .00000051  00000+0  93026-4 0  9990
2 54668  87.9274  25.2424 0002115  83.9128 276.2247 13.21825152 77685
ONEWEB-0605             
1 54669U 22166AD  24189.55853207  .00000000  00000+0 -32622-4 0  9995
2 54669  87.9273  25.2614 0001992 107.7773 252.3578 13.21828112 77769
ONEWEB-0606             
1 54670U 22166AE  24189.58060619 -.00000139  00000+0 -36859-3 0  9996
2 54670  87.9279  25.2483 0001739  83.1710 276.9622 13.21827254 77823
ONEWEB-0607             
1 54671U 22166AF  24189.54749808 -.00000010  00000+0 -56182-4 0  9997
2 54671  87.9276  25.2320 0002081  94.0730 266.0641 13.21828773 77799
ONEWEB-0608             
1 54672U 22166AG  24189.55380680  .00000057  00000+0  10670-3 0  9998
2 54672  87.9282  25.2533 0002088 104.1560 255.9806 13.21828517 77802
ONEWEB-0610             
1 54673U 22166AH  24189.61058000 -.00000263  00000+0 -66938-3 0  9993
2 54673  87.9279  25.2362 0001974 101.7640 258.3715 13.21825104 78181
ONEWEB-0611             
1 54674U 22166AJ  24189.90705515 -.00000105  00000+0 -28638-3 0  9996
2 54674  87.9278  25.1760 0001833  75.2545 284.8792 13.21828578 78216
ONEWEB-0612             
1 54675U 22166AK  24189.61688328 -.00000124  00000+0 -33175-3 0  9990
2 54675  87.9273  25.2162 0001911  96.5653 263.5699 13.21827513 78164
ONEWEB-0615             
1 54676U 22166AL  24189.59797657  .00000020  00000+0  15906-4 0  9990
2 54676  87.9276  25.2447 0002122  89.4495 270.6882 13.21825379 77704
ONEWEB-0655             
1 54677U 22166AM  24189.49547634  .00000103  00000+0  21848-3 0  9991
2 54677  87.9276  25.2671 0002389  88.7627 271.3781 13.21826487 77682
ONEWEB-0659             
1 54678U 22166AN  24189.58851572  .00000064  00000+0  12273-3 0  9999
2 54678  87.9274  25.2550 0001714  83.3588 276.7741 13.21825493 77787
