OBJECT_NAME,OBJECT_ID,EPOCH,MEAN_MOTION,ECCENTRICITY,INCLINATION,RA_OF_ASC_NODE,ARG_OF_PERICENTER,MEAN_ANOMALY,EPHEMERIS_TYPE,CLASSIFICATION_TYPE,NORAD_CAT_ID,ELEMENT_SET_NO,REV_AT_EPOCH,BSTAR,MEAN_MOTION_DOT,MEAN_MOTION_DDOT
ONEWEB-0580,2022-166G,2024-07-07T14:02:55.142880,13.21825187,.0002184,87.9279,25.2332,100.7398,259.3982,0,U,54648,999,7780,.796E-4,.46E-6,0
ONEWEB-0582,2022-166H,2024-07-07T05:59:12.860160,13.21824877,.0002192,87.9275,25.3368,105.6565,254.4811,0,U,54649,999,7773,-.13019E-4,.8E-7,0
ONEWEB-0583,2022-166J,2024-07-07T06:15:07.201728,13.21825516,.0001947,87.9274,25.3345,87.5505,272.5852,0,U,54650,999,7774,.69989E-4,.42E-6,0
ONEWEB-0584,2022-166K,2024-07-07T14:00:38.960928,13.21824930,.0002092,87.9279,25.2369,95.5642,264.5731,0,U,54651,999,7777,.43818E-4,.31E-6,0
ONEWEB-0585,2022-166L,2024-07-07T20:03:59.100480,13.21825815,.0001796,87.9281,25.1958,85.1763,274.9576,0,U,54652,999,7828,.10733E-3,.57E-6,0
ONEWEB-0586,2022-166M,2024-07-07T05:50:07.387584,13.21827795,.0002027,87.9273,25.3276,91.8741,268.2625,0,U,54653,999,7773,.1103E-3,.59E-6,0
ONEWEB-0587,2022-166N,2024-07-07T06:03:45.553248,13.21826405,.0001719,87.9272,25.2805,78.7800,281.3527,0,U,54654,999,7789,.15361E-3,.76E-6,0
ONEWEB-0589,2022-166P,2024-07-07T14:50:37.094496,13.21825392,.0002426,87.9275,25.2393,109.0594,251.0803,0,U,54655,999,7827,-.19141E-5,.12E-6,0
ONEWEB-0590,2022-166Q,2024-07-07T22:40:41.813760,13.21826269,.0001697,87.9280,25.1819,87.6550,272.4778,0,U,54656,999,7829,.77918E-4,.45E-6,0
ONEWEB-0591,2022-166R,2024-07-07T13:53:47.737536,13.21827585,.0001885,87.9274,25.2499,92.1864,267.9486,0,U,54657,999,7781,-.24474E-3,-.88E-6,0
ONEWEB-0592,2022-166S,2024-07-08T00:52:23.575008,13.21825057,.0001888,87.9272,25.1238,96.2932,263.8417,0,U,54658,999,7822,.13414E-3,.68E-6,0
ONEWEB-0593,2022-166T,2024-07-07T14:32:26.189952,13.21825266,.0001932,87.9277,25.2356,95.1847,264.9508,0,U,54659,999,7827,-.62814E-4,-.13E-6,0
ONEWEB-0594,2022-166U,2024-07-07T14:59:40.985952,13.21824174,.0001935,87.9278,25.2324,84.5497,275.5858,0,U,54660,999,7828,-.84273E-4,-.22E-6,0
ONEWEB-0595,2022-166V,2024-07-07T14:27:53.557344,13.21827022,.0001644,87.9277,25.2237,81.8830,278.2491,0,U,54661,999,7779,-.49168E-4,-.7E-7,0
ONEWEB-0596,2022-166W,2024-07-07T12:00:17.600544,13.21825034,.0001834,87.9279,25.2498,98.4025,261.7317,0,U,54662,999,7825,.17341E-3,.85E-6,0
ONEWEB-0597,2022-166X,2024-07-07T13:22:02.235648,13.21825037,.0002122,87.9277,25.2403,94.8160,265.3216,0,U,54663,999,7779,.10185E-3,.55E-6,0
ONEWEB-0600,2022-166Y,2024-07-07T14:46:03.655776,13.21825281,.0002016,87.9274,25.2680,90.7969,269.3396,0,U,54664,999,7824,.34244E-4,.27E-6,0
ONEWEB-0601,2022-166Z,2024-07-07T14:34:41.428416,13.21823935,.0002014,87.9282,25.2354,102.6857,257.4502,0,U,54665,999,7842,-.87877E-4,-.23E-6,0
ONEWEB-0602,2022-166AA,2024-07-07T11:55:44.027904,13.21828413,.0002095,87.9280,25.2609,96.3219,263.8154,0,U,54666,999,7779,.1909E-3,.92E-6,0
ONEWEB-0603,2022-166AB,2024-07-07T13:51:32.912064,13.21828189,.0002124,87.9282,25.2467,97.4808,262.6567,0,U,54667,999,7773,.19554E-3,.94E-6,0
ONEWEB-0604,2022-166AC,2024-07-07T11:44:24.212832,13.21825152,.0002115,87.9274,25.2424,83.9128,276.2247,0,U,54668,999,7768,.93026E-4,.51E-6,0
ONEWEB-0605,2022-166AD,2024-07-07T13:24:17.170848,13.21828112,.0001992,87.9273,25.2614,107.7773,252.3578,0,U,54669,999,7776,-.32622E-4,0,0
ONEWEB-0606,2022-166AE,2024-07-07T13:56:04.374816,13.21827254,.0001739,87.9279,25.2483,83.1710,276.9622,0,U,54670,999,7782,-.36859E-3,-.139E-5,0
ONEWEB-0607,2022-166AF,2024-07-07T13:08:23.834112,13.21828773,.0002081,87.9276,25.2320,94.0730,266.0641,0,U,54671,999,7779,-.56182E-4,-.1E-6,0
ONEWEB-0608,2022-166AG,2024-07-07T13:17:28.907520,13.21828517,.0002088,87.9282,25.2533,104.1560,255.9806,0,U,54672,999,7780,.1067E-3,.57E-6,0
ONEWEB-0610,2022-166AH,2024-07-07T14:39:14.112000,13.21825104,.0001974,87.9279,25.2362,101.7640,258.3715,0,U,54673,999,7818,-.66938E-3,-.263E-5,0
ONEWEB-0611,2022-166AJ,2024-07-07T21:46:09.564960,13.21828578,.0001833,87.9278,25.1760,75.2545,284.8792,0,U,54674,999,7821,-.28638E-3,-.105E-5,0
ONEWEB-0612,2022-166AK,2024-07-07T14:48:18.715392,13.21827513,.0001911,87.9273,25.2162,96.5653,263.5699,0,U,54675,999,7816,-.33175E-3,-.124E-5,0
ONEWEB-0615,2022-166AL,2024-07-07T14:21:05.175648,13.21825379,.0002122,87.9276,25.2447,89.4495,270.6882,0,U,54676,999,7770,.15906E-4,.2E-6,0
ONEWEB-0655,2022-166AM,2024-07-07T11:53:29.155776,13.21826487,.0002389,87.9276,25.2671,88.7627,271.3781,0,U,54677,999,7768,.21848E-3,.103E-5,0
ONEWEB-0659,2022-166AN,2024-07-07T14:07:27.758208,13.21825493,.0001714,87.9274,25.2550,83.3588,276.7741,0,U,54678,999,7778,.12273E-3,.64E-6,0
